BEIDOU-2 G4             
1 37210U 10057A   24063.51855084 -.00000104  00000+0  00000+0 0  9991
2 37210   1.5910  66.9991 0005431 205.7852 235.6960  1.00270717 48911
SKYTERRA 1              
1 37218U 10061A   24063.48411706 -.00000109  00000+0  00000+0 0  9994
2 37218   3.4155  47.0062 0002209 317.4813 230.2518  1.00272018 48813
HYLAS 1                 
1 37237U 10065A   24063.58719007 -.00000313  00000+0  00000+0 0  9992
2 37237   3.5034  83.1361 0001992  90.9958 338.5519  0.99963572 48604
INTELSAT 17 (IS-17)     
1 37238U 10065B   24063.49701883  .00000006  00000+0  00000+0 0  9994
2 37238   0.0148 134.3371 0002540 211.1737  61.1351  1.00271668 44852
BEIDOU-2 IGSO-2         
1 37256U 10068A   24063.53356016 -.00000154  00000+0  00000+0 0  9991
2 37256  49.0727 282.1035 0031198 211.3429 328.2158  1.00284269 48417
EUTELSAT KA-SAT 9A      
1 37258U 10069A   24063.57187352  .00000070  00000+0  00000+0 0  9999
2 37258   0.0555 286.2360 0001117  13.7921  76.6348  1.00274089 35612
HISPASAT 30W-5          
1 37264U 10070A   24063.42085535 -.00000208  00000+0  00000+0 0  9996
2 37264   0.0288 122.7201 0002976 245.4678 274.9978  1.00270661 44802
KOREASAT 6              
1 37265U 10070B   24063.61457899 -.00000354  00000+0  00000+0 0  9996
2 37265   0.0158 136.7664 0001718 212.7935 149.5442  1.00271834 48397
BEIDOU-2 IGSO-3         
1 37384U 11013A   24063.37708299 -.00000148  00000+0  00000+0 0  9993
2 37384  61.2040  48.1312 0027010 184.1513 173.4507  1.00285483 47270
INTELSAT NEW DAWN       
1 37392U 11016A   24063.53729792  .00000164  00000+0  00000+0 0  9991
2 37392   0.0097 144.6540 0001453 257.0902 346.2797  1.00274947 44903
YAHSAT 1A               
1 37393U 11016B   24063.58048875  .00000109  00000+0  00000+0 0  9992
2 37393   0.0164 145.0369 0002512 211.0947  67.1628  1.00270393 34024
SBIRS GEO-1 (USA 230)   
1 37481U 11019A   24063.58309942  .00000004  00000+0  00000+0 0  9992
2 37481   2.7957  46.7107 0002304 291.2119  99.5070  1.00272119 47020
TELSTAR 14R             
1 37602U 11021A   24063.27108942 -.00000271  00000+0  00000+0 0  9990
2 37602   0.0445 281.3248 0003006  79.1286 195.6580  1.00271263 47459
GSAT-8                  
1 37605U 11022A   24063.52618632  .00000092  00000+0  00000+0 0  9994
2 37605   0.0178 151.4002 0006704 142.3639 112.5246  1.00271597 44839
ST-2                    
1 37606U 11022B   24063.58753758 -.00000204  00000+0  00000+0 0  9996
2 37606   0.0108 130.8412 0001765 247.5507  82.9710  1.00271753 46903
CHINASAT 10 (ZX 10)     
1 37677U 11026A   24063.64944895 -.00000345  00000+0  00000+0 0  9995
2 37677   0.0631 281.8083 0000950 267.3146 317.0671  1.00268734 46629
SES-3                   
1 37748U 11035A   24063.54018118 -.00000093  00000+0  00000+0 0  9993
2 37748   0.0579 299.3620 0002918  54.7707 259.1134  1.00271881 46219
KAZSAT-2                
1 37749U 11035B   24063.58727650 -.00000190  00000+0  00000+0 0  9994
2 37749   0.0223 136.2689 0000894  38.1836 285.3305  1.00270762 45015
BEIDOU-2 IGSO-4         
1 37763U 11038A   24062.76299434 -.00000064  00000+0  00000+0 0  9996
2 37763  54.5542 173.1204 0120206 227.2782 131.0624  1.00281514 46258
ASTRA 1N                
1 37775U 11041A   24063.28744969  .00000128  00000+0  00000+0 0  9999
2 37775   0.0559   0.4991 0005112  10.8238 272.8890  1.00270236 36145
BSAT-3C (JCSAT-110R)    
1 37776U 11041B   24063.64718890 -.00000343  00000+0  00000+0 0  9994
2 37776   0.0641 294.0962 0000242 164.7035  46.0129  1.00271173 42100
PAKSAT-1R               
1 37779U 11042A   24063.57761701  .00000161  00000+0  00000+0 0  9996
2 37779   0.0232  25.0509 0003111  28.4139 354.2922  1.00270094 46095
SES-2                   
1 37809U 11049A   24063.55272854 -.00000188  00000+0  00000+0 0  9991
2 37809   0.0502 298.7044 0002402  49.4456 285.6323  1.00272617 45587
ARABSAT-5C              
1 37810U 11049B   24063.50257633  .00000131  00000+0  00000+0 0  9993
2 37810   0.0577  27.5554 0001221 241.8151  93.2833  1.00273440 45677
EUTELSAT 7 WEST A       
1 37816U 11051A   24063.55396678 -.00000052  00000+0  00000+0 0  9993
2 37816   0.0705  26.5194 0002585 210.0995 117.2907  1.00271444 45517
QUETZSAT 1              
1 37826U 11054A   24063.55473007 -.00000233  00000+0  00000+0 0  9990
2 37826   0.0504 299.2415 0002482  59.6801 285.5637  1.00269830 41509
INTELSAT 18 (IS-18)     
1 37834U 11056A   24063.36979300  .00000061  00000+0  00000+0 0  9995
2 37834   0.0177 129.8973 0001843 215.2972 129.5339  1.00270748 45432
EUTELSAT 16A            
1 37836U 11057A   24063.30535441  .00000112  00000+0  00000+0 0  9993
2 37836   0.0703  13.1699 0005285 329.6585 304.6232  1.00272692 37588
VIASAT-1                
1 37843U 11059A   24063.52884310 -.00000015  00000+0  00000+0 0  9992
2 37843   0.0214 241.1108 0002248 110.8662 245.0497  1.00272034 38945
ASIASAT 7               
1 37933U 11069A   24063.53239152 -.00000326  00000+0  00000+0 0  9997
2 37933   0.0103 164.8865 0001200 152.5888 141.4674  1.00270376 36472
BEIDOU-2 IGSO-5         
1 37948U 11073A   24063.06438389 -.00000107  00000+0  00000+0 0  9996
2 37948  49.2042 281.7898 0093485 220.0549 138.0597  1.00275494 44742
LUCH-5A                 
1 37951U 11074B   24063.41990484 -.00000041  00000+0  00000+0 0  9996
2 37951   6.6092  86.6749 0002800 271.5100 121.6563  1.00269156 44671
NIGCOMSAT 1R            
1 38014U 11077A   24063.53174339  .00000153  00000+0  00000+0 0  9999
2 38014   0.0408 312.7399 0004150  35.9699  46.9654  1.00271584 44577
FENGYUN 2F              
1 38049U 12002A   24063.64917208 -.00000350  00000+0  00000+0 0  9998
2 38049   5.3297  74.1630 0003529  27.8055  45.7830  1.00268596 44506
WGS F4 (USA 233)        
1 38070U 12003A   24063.58762459 -.00000207  00000+0  00000+0 0  9993
2 38070   0.0184 133.5171 0000177  32.7516 295.5021  1.00271431 35767
SES-4                   
1 38087U 12007A   24063.38799453 -.00000160  00000+0  00000+0 0  9995
2 38087   0.0247  73.6050 0002263 267.6852 298.0067  1.00270991 43841
BEIDOU-2 G5             
1 38091U 12008A   24063.58179409  .00000065  00000+0  00000+0 0  9999
2 38091   1.8172  69.8153 0010678 249.9711 110.2214  1.00271210 43988
MUOS-1                  
1 38093U 12009A   24063.54145271 -.00000118  00000+0  00000+0 0  9998
2 38093   3.8546  43.6574 0056712 356.6195 216.4287  1.00273104 44068
INTELSAT 22 (IS-22)     
1 38098U 12011A   24063.18660809 -.00000050  00000+0  00000+0 0  9990
2 38098   0.0059 152.7930 0001739 201.0723 306.8367  1.00271528 43428
APSTAR 7                
1 38107U 12013A   24063.58527500 -.00000094  00000+0  00000+0 0  9995
2 38107   0.0318 117.7174 0002747 243.5641  87.7315  1.00271334 43421
YAHSAT 1B               
1 38245U 12016A   24063.52618632  .00000134  00000+0  00000+0 0  9996
2 38245   0.0199 115.2925 0003055 250.8598  32.6560  1.00273651 37218
AEHF-2 (USA 235)        
1 38254U 12019A   24063.55124917 -.00000151  00000+0  00000+0 0  9990
2 38254   4.7198  61.9341 0004187 248.9529 315.1039  1.00269764 42470
JCSAT-13                
1 38331U 12023A   24063.62222075 -.00000349  00000+0  00000+0 0  9992
2 38331   0.0296 253.2072 0002340 133.9794 122.6771  1.00271507 43166
VINASAT-2               
1 38332U 12023B   24063.62850979 -.00000321  00000+0  00000+0 0  9993
2 38332   0.0448 307.0010 0002719  61.5627 151.4147  1.00271902 38280
NIMIQ 6                 
1 38342U 12026A   24063.55194534 -.00000165  00000+0  00000+0 0  9993
2 38342   0.0550 284.1715 0002898  62.9514 282.2747  1.00271561 42049
CHINASAT 2A (ZX 2A)     
1 38352U 12028A   24063.63599524 -.00000286  00000+0  00000+0 0  9997
2 38352   0.0196  86.1396 0001864 281.7028 121.2549  1.00273461 43004
INTELSAT 19 (IS-19)     
1 38356U 12030A   24063.56515838 -.00000049  00000+0  00000+0 0  9999
2 38356   0.0238 131.4911 0002925 221.6962 178.0873  1.00270575 42069
ECHOSTAR 17             
1 38551U 12035A   24063.53607153 -.00000067  00000+0  00000+0 0  9990
2 38551   0.0176 135.7074 0001929 210.7629 261.1930  1.00271225 42685
METEOSAT-10 (MSG-3)     
1 38552U 12035B   24063.28362068  .00000002  00000+0  00000+0 0  9994
2 38552   2.7261  60.0074 0001819 298.1712 265.4767  1.00271101 42476
SES-5                   
1 38652U 12036A   24063.54285498  .00000042  00000+0  00000+0 0  9990
2 38652   0.0320 326.9785 0001757  18.6516  16.5649  1.00272565 36107
INTELSAT 20 (IS-20)     
1 38740U 12043A   24063.44841226 -.00000016  00000+0  00000+0 0  9994
2 38740   0.0188 141.9623 0002119  55.7708 193.8579  1.00271024 42366
HYLAS 2                 
1 38741U 12043B   24063.53729792  .00000162  00000+0  00000+0 0  9999
2 38741   0.2624  91.4173 0001564 284.2975  10.5267  1.00272110 42389
INTELSAT 21 (IS-21)     
1 38749U 12045A   24063.48694396 -.00000276  00000+0  00000+0 0  9991
2 38749   0.0223 231.0738 0001644 123.2516 284.7101  1.00271242 42142
ASTRA 2F                
1 38778U 12051A   24063.53729792  .00000158  00000+0  00000+0 0  9993
2 38778   0.0814 256.1162 0002221  18.5770 108.6811  1.00271641 32749
GSAT-10                 
1 38779U 12051B   24063.58658032 -.00000157  00000+0  00000+0 0  9997
2 38779   0.0752 272.8233 0003515   3.4628 179.7286  1.00270372 41720
INTELSAT 23 (IS-23)     
1 38867U 12057A   24063.48790122 -.00000276  00000+0  00000+0 0  9999
2 38867   0.0244 216.6240 0001026 220.8471 206.8941  1.00267726 41565
BEIDOU-2 G6             
1 38953U 12059A   24063.58675437 -.00000168  00000+0  00000+0 0  9999
2 38953   2.2878  81.1893 0010597 297.8472  77.9568  1.00275573 41533
LUCH-5B                 
1 38977U 12061A   24063.27410563 -.00000127  00000+0  00000+0 0  9996
2 38977   8.6541  57.6103 0000580 194.7602 351.5242  1.00272466 41234
YAMAL 300K              
1 38978U 12061B   24063.58252694  .00000079  00000+0  00000+0 0  9995
2 38978   0.0217 252.4042 0000682 102.1320 199.9522  1.00270333 41259
